NORAD_CAT_ID,OBJECT_NAME,OBJECT_TYPE,EPOCH,MEAN_MOTION,ECCENTRICITY,INCLINATION,RA_OF_ASC_NODE,ARG_OF_PERICENTER,MEAN_ANOMALY,BSTAR,MEAN_MOTION_DOT,MEAN_MOTION_DDOT,TLE_LINE0,TLE_LINE1,TLE_LINE2,SEMIMAJOR_AXIS,PERIOD,APOGEE,PERIGEE,DECAYED
53004.0,STARLINK-4253,PAYLOAD,2024-02-10 19:48:59,15.08833868,0.0001372,53.2164,256.3021,102.9991,257.1154,8.6841e-05,1.094e-05,0.0,0 STARLINK-4253,1 53004U 22076U   24041.82569388  .00001094  00000-0  86841-4 0  9994,2 53004  53.2164 256.3021 0001372 102.9991 257.1154 15.08833868 88908,6917.899,95.438,540.713,538.815,0.0
53004.0,STARLINK-4253,PAYLOAD,2024-02-11 00:35:09,15.08835579,0.0001387,53.2169,255.4106,99.3324,260.7825,9.417e-05,1.211e-05,0.0,0 STARLINK-4253,1 53004U 22076U   24042.02441369  .00001211  00000-0  94170-4 0  9990,2 53004  53.2169 255.4106 0001387  99.3324 260.7825 15.08835579 88469,6917.894,95.438,540.718,538.799,0.0
53004.0,STARLINK-4253,PAYLOAD,2024-02-11 21:15:09,15.08849453,0.000126,53.2166,251.5452,86.9996,273.1141,0.00013325,1.834e-05,0.0,0 STARLINK-4253,1 53004U 22076U   24042.88552387  .00001834  00000-0  13325-3 0  9990,2 53004  53.2166 251.5452 0001260  86.9996 273.1141 15.08849453 89066,6917.851,95.437,540.588,538.845,0.0
53004.0,STARLINK-4253,PAYLOAD,2024-02-12 13:09:01,15.0884125,0.0001841,53.2168,248.5792,44.7387,315.3753,0.00013667,1.888e-05,0.0,0 STARLINK-4253,1 53004U 22076U   24043.54793142  .00001888  00000-0  13667-3 0  9998,2 53004  53.2168 248.5792 0001841  44.7387 315.3753 15.08841250 88695,6917.877,95.437,541.015,538.468,0.0
53004.0,STARLINK-4253,PAYLOAD,2024-02-12 19:30:34,15.08840217,0.0001564,53.2165,247.3856,59.5387,300.5759,3.0119e-05,1.91e-06,0.0,0 STARLINK-4253,1 53004U 22076U   24043.81289505  .00000191  00000-0  30119-4 0  9999,2 53004  53.2165 247.3856 0001564  59.5387 300.5759 15.08840217 89208,6917.88,95.438,540.827,538.663,0.0
53004.0,STARLINK-4253,PAYLOAD,2024-02-12 21:05:57,15.08839686,0.0001552,53.217,247.088,66.6861,293.4295,2.5939e-05,1.25e-06,0.0,0 STARLINK-4253,1 53004U 22076U   24043.87913446  .00000125  00000-0  25939-4 0  9994,2 53004  53.2170 247.0880 0001552  66.6861 293.4295 15.08839686 88742,6917.881,95.438,540.82,538.673,0.0
53004.0,STARLINK-4253,PAYLOAD,2024-02-13 06:38:15,15.0884734,0.000112,53.2158,245.3017,100.7787,259.3331,6.3099e-05,7.17e-06,0.0,0 STARLINK-4253,1 53004U 22076U   24044.27656535  .00000717  00000-0  63099-4 0  9998,2 53004  53.2158 245.3017 0001120 100.7787 259.3331 15.08847340 89276,6917.858,95.437,540.498,538.948,0.0
53004.0,STARLINK-4253,PAYLOAD,2024-02-13 12:59:47,15.08853354,9.7e-05,53.218,244.1072,115.2261,244.8832,7.6957e-05,9.38e-06,0.0,0 STARLINK-4253,1 53004U 22076U   24044.54151874  .00000938  00000-0  76957-4 0  9996,2 53004  53.2180 244.1072 0000970 115.2261 244.8832 15.08853354 88848,6917.84,95.437,540.376,539.034,0.0
53004.0,STARLINK-4253,PAYLOAD,2024-02-13 20:56:43,15.08842774,0.0001634,53.2167,242.6282,55.6309,304.4838,-4.0768e-06,-3.53e-06,0.0,0 STARLINK-4253,1 53004U 22076U   24044.87272886 -.00000353  00000-0 -40768-5 0  9994,2 53004  53.2167 242.6282 0001634  55.6309 304.4838 15.08842774 88895,6917.872,95.437,540.867,538.607,0.0
53004.0,STARLINK-4253,PAYLOAD,2024-02-14 12:50:35,15.08836884,0.0001264,53.2165,239.6534,77.3583,282.7551,2.0756e-05,4.2e-07,0.0,0 STARLINK-4253,1 53004U 22076U   24045.53512998  .00000042  00000-0  20756-4 0  9996,2 53004  53.2165 239.6534 0001264  77.3583 282.7551 15.08836884 88999,6917.89,95.438,540.629,538.88,0.0
53004.0,STARLINK-4253,PAYLOAD,2024-02-14 17:36:44,15.08839098,0.0001304,53.2168,238.7619,70.9542,289.1592,4.1032e-05,3.65e-06,0.0,0 STARLINK-4253,1 53004U 22076U   24045.73384818  .00000365  00000-0  41032-4 0  9994,2 53004  53.2168 238.7619 0001304  70.9542 289.1592 15.08839098 89026,6917.883,95.438,540.65,538.846,0.0
53004.0,STARLINK-4253,PAYLOAD,2024-02-15 06:19:49,15.08842956,0.0001306,53.2159,236.3837,71.2035,288.9099,2.095e-05,4.6e-07,0.0,0 STARLINK-4253,1 53004U 22076U   24046.26376560  .00000046  00000-0  20950-4 0  9990,2 53004  53.2159 236.3837 0001306  71.2035 288.9099 15.08842956 89100,6917.871,95.437,540.64,538.833,0.0
53004.0,STARLINK-4253,PAYLOAD,2024-02-15 19:02:55,15.08833188,0.0001302,53.2168,234.0012,93.6155,266.4986,-5.6504e-05,-1.187e-05,0.0,0 STARLINK-4253,1 53004U 22076U   24046.79369397 -.00001187  00000-0 -56504-4 0  9991,2 53004  53.2168 234.0012 0001302  93.6155 266.4986 15.08833188 89650,6917.901,95.438,540.667,538.865,0.0
53004.0,STARLINK-4253,PAYLOAD,2024-02-16 18:53:41,15.0884238,0.000143,53.2177,229.5434,90.903,269.2126,9.1129e-05,1.163e-05,0.0,0 STARLINK-4253,1 53004U 22076U   24047.78728721  .00001163  00000-0  91129-4 0  9995,2 53004  53.2177 229.5434 0001430  90.9030 269.2126 15.08842380 89809,6917.873,95.437,540.727,538.749,0.0
53004.0,STARLINK-4253,PAYLOAD,2024-02-16 22:04:27,15.08845542,0.000143,53.2175,228.9471,92.3409,267.7747,0.00010229,1.341e-05,0.0,0 STARLINK-4253,1 53004U 22076U   24047.91976456  .00001341  00000-0  10229-3 0  9999,2 53004  53.2175 228.9471 0001430  92.3409 267.7747 15.08845542 89352,6917.863,95.437,540.718,538.739,0.0
53004.0,STARLINK-4253,PAYLOAD,2024-02-17 04:26:00,15.08834467,0.0001402,53.216,227.7533,94.3945,265.7208,7.6638e-05,9.32e-06,0.0,0 STARLINK-4253,1 53004U 22076U   24048.18473321  .00000932  00000-0  76638-4 0  9994,2 53004  53.2160 227.7533 0001402  94.3945 265.7208 15.08834467 89868,6917.897,95.438,540.732,538.792,0.0
53004.0,STARLINK-4253,PAYLOAD,2024-02-17 18:44:29,15.08828188,0.000129,53.2169,225.0818,94.5993,265.5146,6.5465e-05,7.54e-06,0.0,0 STARLINK-4253,1 53004U 22076U   24048.78090125  .00000754  00000-0  65465-4 0  9995,2 53004  53.2169 225.0818 0001290  94.5993 265.5146 15.08828188 89956,6917.916,95.438,540.674,538.889,0.0
53004.0,STARLINK-4253,PAYLOAD,2024-02-18 10:38:20,15.08842444,0.0001329,53.2174,222.1076,102.2491,257.865,2.1696e-05,5.7e-07,0.0,0 STARLINK-4253,1 53004U 22076U   24049.44329614  .00000057  00000-0  21696-4 0  9991,2 53004  53.2174 222.1076 0001329 102.2491 257.8650 15.08842444 90057,6917.873,95.437,540.657,538.819,0.0
53004.0,STARLINK-4253,PAYLOAD,2024-02-18 20:10:38,15.08850473,0.000132,53.2171,220.3235,97.7132,262.401,9.7442e-05,1.264e-05,0.0,0 STARLINK-4253,1 53004U 22076U   24049.84072876  .00001264  00000-0  97442-4 0  9993,2 53004  53.2171 220.3235 0001320  97.7132 262.4010 15.08850473 90112,6917.848,95.437,540.627,538.8,0.0
53004.0,STARLINK-4253,PAYLOAD,2024-02-19 04:07:34,15.08847786,0.0001243,53.216,218.8378,121.1793,238.9321,-1.5973e-05,-5.42e-06,0.0,0 STARLINK-4253,1 53004U 22076U   24050.17193109 -.00000542  00000-0 -15973-4 0  9993,2 53004  53.2160 218.8378 0001243 121.1793 238.9321 15.08847786 90160,6917.857,95.437,540.581,538.862,0.0
53004.0,STARLINK-4253,PAYLOAD,2024-02-19 10:29:08,15.08834116,0.0001516,53.2172,217.6472,96.7199,263.3965,0.00012676,1.73e-05,0.0,0 STARLINK-4253,1 53004U 22076U   24050.43690039  .00001730  00000-0  12676-3 0  9990,2 53004  53.2172 217.6472 0001516  96.7199 263.3965 15.08834116 90209,6917.898,95.438,540.812,538.715,0.0
53004.0,STARLINK-4253,PAYLOAD,2024-02-19 20:01:27,15.08837956,0.0001441,53.2171,215.8627,94.8158,265.2999,6.2651e-05,7.09e-06,0.0,0 STARLINK-4253,1 53004U 22076U   24050.83434052  .00000709  00000-0  62651-4 0  9999,2 53004  53.2171 215.8627 0001441  94.8158 265.2999 15.08837956 89796,6917.887,95.438,540.749,538.755,0.0
53004.0,STARLINK-4253,PAYLOAD,2024-02-20 15:06:04,15.08838183,0.0001512,53.2167,212.2937,91.6118,268.5048,-1.2429e-05,-4.86e-06,0.0,0 STARLINK-4253,1 53004U 22076U   24051.62922416 -.00000486  00000-0 -12429-4 0  9995,2 53004  53.2167 212.2937 0001512  91.6118 268.5048 15.08838183 89914,6917.886,95.438,540.797,538.705,0.0
53004.0,STARLINK-4253,PAYLOAD,2024-02-20 18:16:51,15.08838732,0.0001371,53.217,211.6992,87.5206,272.5943,-3.3966e-05,-8.28e-06,0.0,0 STARLINK-4253,1 53004U 22076U   24051.76170442 -.00000828  00000-0 -33966-4 0  9993,2 53004  53.2170 211.6992 0001371  87.5206 272.5943 15.08838732 90402,6917.884,95.438,540.698,538.801,0.0
53004.0,STARLINK-4253,PAYLOAD,2024-02-21 03:49:09,15.08845886,0.0001383,53.2172,209.9155,88.5469,271.5682,1.5411e-06,-2.63e-06,0.0,0 STARLINK-4253,1 53004U 22076U   24052.15913817 -.00000263  00000-0  15411-5 0  9996,2 53004  53.2172 209.9155 0001383  88.5469 271.5682 15.08845886 90463,6917.862,95.437,540.684,538.771,0.0
53004.0,STARLINK-4253,PAYLOAD,2024-02-21 14:56:51,15.08842596,0.0001434,53.2169,207.8334,91.7345,268.3812,0.00019479,2.814e-05,0.0,0 STARLINK-4253,1 53004U 22076U   24052.62281479  .00002814  00000-0  19479-3 0  9999,2 53004  53.2169 207.8334 0001434  91.7345 268.3812 15.08842596 90061,6917.872,95.437,540.729,538.745,0.0
53004.0,STARLINK-4253,PAYLOAD,2024-02-21 16:32:14,15.08842515,0.0001346,53.2162,207.536,93.9096,266.205,0.00022484,3.292e-05,0.0,0 STARLINK-4253,1 53004U 22076U   24052.68905396  .00003292  00000-0  22484-3 0  9997,2 53004  53.2162 207.5360 0001346  93.9096 266.2050 15.08842515 90072,6917.873,95.437,540.669,538.807,0.0
53004.0,STARLINK-4253,PAYLOAD,2024-02-22 10:01:29,15.08838512,0.0001449,53.2172,204.2662,94.1231,265.9927,9.4911e-05,1.223e-05,0.0,0 STARLINK-4253,1 53004U 22076U   24053.41769871  .00001223  00000-0  94911-4 0  9992,2 53004  53.2172 204.2662 0001449  94.1231 265.9927 15.08838512 90655,6917.885,95.438,540.752,538.748,0.0
53004.0,STARLINK-4253,PAYLOAD,2024-02-22 14:47:38,15.08835428,0.0001331,53.2175,203.3756,88.739,271.3755,7.4593e-05,8.99e-06,0.0,0 STARLINK-4253,1 53004U 22076U   24053.61642154  .00000899  00000-0  74593-4 0  9990,2 53004  53.2175 203.3756 0001331  88.7390 271.3755 15.08835428 90212,6917.894,95.438,540.68,538.839,0.0
53004.0,STARLINK-4253,PAYLOAD,2024-02-22 16:23:01,15.08838456,0.0001429,53.2173,203.0762,96.592,263.5235,0.00010024,1.308e-05,0.0,0 STARLINK-4253,1 53004U 22076U   24053.68265867  .00001308  00000-0  10024-3 0  9993,2 53004  53.2173 203.0762 0001429  96.5920 263.5235 15.08838456 90229,6917.885,95.438,540.739,538.762,0.0
